{
    "links": {
        "self": "http://www.neowsapp.com/rest/v1/neo/3520756?api_key=iIulBulltgU6a56xZRHN4H3l9WmuAYTsLGpBGhQ2"
    },
    "id": "3520756",
    "neo_reference_id": "3520756",
    "name": "(2010 JV39)",
    "designation": "2010 JV39",
    "nasa_jpl_url": "http://ssd.jpl.nasa.gov/sbdb.cgi?sstr=3520756",
    "absolute_magnitude_h": 23.6,
    "estimated_diameter": {
        "kilometers": {
            "estimated_diameter_min": 0.0506471459,
            "estimated_diameter_max": 0.1132504611
        },
        "meters": {
            "estimated_diameter_min": 50.6471458835,
            "estimated_diameter_max": 113.2504610618
        },
        "miles": {
            "estimated_diameter_min": 0.0314706677,
            "estimated_diameter_max": 0.0703705522
        },
        "feet": {
            "estimated_diameter_min": 166.1651821003,
            "estimated_diameter_max": 371.5566426699
        }
    },
    "is_potentially_hazardous_asteroid": false,
    "close_approach_data": [
        {
            "close_approach_date": "2009-12-18",
            "close_approach_date_full": "2009-Dec-18 22:35",
            "epoch_date_close_approach": 1261175700000,
            "relative_velocity": {
                "kilometers_per_second": "13.1582060505",
                "kilometers_per_hour": "47369.5417817197",
                "miles_per_hour": "29433.5911143136"
            },
            "miss_distance": {
                "astronomical": "0.0937969711",
                "lunar": "36.4870217579",
                "kilometers": "14031827.089011557",
                "miles": "8718973.0489592066"
            },
            "orbiting_body": "Mars"
        },
        {
            "close_approach_date": "2010-04-22",
            "close_approach_date_full": "2010-Apr-22 20:46",
            "epoch_date_close_approach": 1271969160000,
            "relative_velocity": {
                "kilometers_per_second": "4.9918045658",
                "kilometers_per_hour": "17970.4964369222",
                "miles_per_hour": "11166.1676332642"
            },
            "miss_distance": {
                "astronomical": "0.1072877578",
                "lunar": "41.7349377842",
                "kilometers": "16050020.043955886",
                "miles": "9973020.0002317868"
            },
            "orbiting_body": "Earth"
        },
        {
            "close_approach_date": "2023-02-26",
            "close_approach_date_full": "2023-Feb-26 09:33",
            "epoch_date_close_approach": 1677403980000,
            "relative_velocity": {
                "kilometers_per_second": "11.4429122164",
                "kilometers_per_hour": "41194.4839792024",
                "miles_per_hour": "25596.650336966"
            },
            "miss_distance": {
                "astronomical": "0.0858642753",
                "lunar": "33.4012030917",
                "kilometers": "12845112.693973611",
                "miles": "7981582.9171173918"
            },
            "orbiting_body": "Mars"
        },
        {
            "close_approach_date": "2186-10-13",
            "close_approach_date_full": "2186-Oct-13 18:11",
            "epoch_date_close_approach": 6841044660000,
            "relative_velocity": {
                "kilometers_per_second": "12.5064029042",
                "kilometers_per_hour": "45023.0504552597",
                "miles_per_hour": "27975.5726564918"
            },
            "miss_distance": {
                "astronomical": "0.0624993119",
                "lunar": "24.3122323291",
                "kilometers": "9349763.936705653",
                "miles": "5809673.9121098914"
            },
            "orbiting_body": "Mars"
        },
        {
            "close_approach_date": "2200-04-23",
            "close_approach_date_full": "2200-Apr-23 23:54",
            "epoch_date_close_approach": 7267881240000,
            "relative_velocity": {
                "kilometers_per_second": "5.0058529123",
                "kilometers_per_hour": "18021.0704843306",
                "miles_per_hour": "11197.5923795553"
            },
            "miss_distance": {
                "astronomical": "0.1075091376",
                "lunar": "41.8210545264",
                "kilometers": "16083137.990496912",
                "miles": "9993598.5379729056"
            },
            "orbiting_body": "Earth"
        }
    ],
    "orbital_data": {
        "orbit_id": "10",
        "orbit_determination_date": "2017-04-06 08:57:34",
        "first_observation_date": "2010-05-10",
        "last_observation_date": "2010-06-14",
        "data_arc_in_days": 35,
        "observations_used": 26,
        "orbit_uncertainty": "7",
        "minimum_orbit_intersection": ".107215",
        "jupiter_tisserand_invariant": "3.809",
        "epoch_osculation": "2459000.5",
        "eccentricity": ".4410946060421433",
        "semi_major_axis": "1.90895976378985",
        "inclination": "4.84183152648796",
        "ascending_node_longitude": "121.2620494662337",
        "orbital_period": "963.3710444424612",
        "perihelion_distance": "1.066927908830663",
        "perihelion_argument": "87.64733991431505",
        "aphelion_distance": "2.750991618749036",
        "perihelion_time": "2459161.069242801031",
        "mean_anomaly": "299.9972339402985",
        "mean_motion": ".3736877935835672",
        "equinox": "J2000",
        "orbit_class": {
            "orbit_class_type": "AMO",
            "orbit_class_description": "Near-Earth asteroid orbits similar to that of 1221 Amor",
            "orbit_class_range": "1.017 AU < q (perihelion) < 1.3 AU"
        }
    },
    "is_sentry_object": false
}